OSCAR 7 (AO-7)          
1 07530U 74089B   19342.86811647 -.00000039  00000-0  40409-4 0  9997
2 07530 101.7714 308.9088 0012399  14.1906  14.0223 12.53641106 62222
UOSAT 2 (UO-11)         
1 14781U 84021B   19343.49658493  .00000100  00000-0  18338-4 0  9992
2 14781  97.5997 359.8848 0009942 106.4205 253.8103 14.83126282924527
LUSAT (LO-19)           
1 20442U 90005G   19342.83965848 -.00000004  00000-0  15021-4 0  9994
2 20442  98.6687 284.6937 0011887   4.7752 355.3543 14.32940052561175
ITAMSAT (IO-26)         
1 22826U 93061D   19343.46744391  .00000001  00000-0  18363-4 0  9993
2 22826  98.9102 336.1566 0008598 195.3346 164.7576 14.30407499366992
RADIO ROSTO (RS-15)     
1 23439U 94085A   19343.61536129 -.00000012  00000-0  87460-3 0  9992
2 23439  64.8134 194.8668 0145820  79.1497 282.5799 11.27569217 27662
JAS-2 (FO-29)           
1 24278U 96046B   19342.87554147 -.00000038  00000-0 -49243-5 0  9998
2 24278  98.5629 113.0174 0350828 150.9742 211.1412 13.53095221151229
TECHSAT 1B (GO-32)      
1 25397U 98043D   19342.86147578 -.00000026  00000-0  79890-5 0  9992
2 25397  98.7074 281.0351 0000312 208.5391 151.5770 14.23675677112511
ISS (ZARYA)             
1 25544U 98067A   19343.69339541  .00001764  00000-0  38792-4 0  9991
2 25544  51.6439 211.2001 0007417  17.6667  85.6398 15.50103472202482
PCSAT (NO-44)           
1 26931U 01043C   19343.16683286 -.00000041  00000-0  15902-4 0  9996
2 26931  67.0516 276.0237 0007204 264.5268  95.5011 14.30561031949783
SAUDISAT 1C (SO-50)     
1 27607U 02058C   19342.91238907 -.00000055  00000-0  13050-4 0  9999
2 27607  64.5550 239.9901 0070297 222.4274 137.1382 14.75593800912469
CUTE-1 (CO-55)          
1 27844U 03031E   19342.86356746  .00000050  00000-0  42459-4 0  9999
2 27844  98.6837 348.4866 0008888 247.8914 112.1320 14.22209679852900
CUBESAT XI-IV (CO-57)   
1 27848U 03031J   19343.46818576  .00000037  00000-0  36552-4 0  9996
2 27848  98.6910 349.6155 0008714 259.1049 100.9148 14.21800727852838
MOZHAYETS 4 (RS-22)     
1 27939U 03042A   19343.38584909  .00000034  00000-0  14660-4 0  9993
2 27939  98.0638 116.0815 0012006 234.1932 125.8167 14.66822334866000
CUBESAT XI-V            
1 28895U 05043F   19343.14626980  .00000094  00000-0  26910-4 0  9995
2 28895  97.9829 120.1998 0017305 160.3962 199.7909 14.63718574752858
CUTE-1.7+APD II (CO-65) 
1 32785U 08021C   19342.80370343  .00000199  00000-0  26995-4 0  9997
2 32785  97.5588 334.4419 0014256  52.9545 307.2974 14.88385720629437
DELFI-C3 (DO-64)        
1 32789U 08021G   19343.37077135  .00000696  00000-0  50056-4 0  9994
2 32789  97.4442  27.6262 0010743 247.7370 112.2719 15.07309486633122
SEEDS II (CO-66)        
1 32791U 08021J   19343.53606756  .00000351  00000-0  40926-4 0  9995
2 32791  97.5323 341.2507 0013949  24.9642 335.2248 14.90928006630014
YUBILEINY (RS-30)       
1 32953U 08025A   19343.48973361  .00000021  00000-0  75656-4 0  9994
2 32953  82.5061  36.6772 0020312 110.3031 250.0231 12.43092677523907
KKS-1 (KISEKI)          
1 33499U 09002H   19342.87685946  .00000097  00000-0  22229-4 0  9998
2 33499  98.3341 187.0000 0009578  22.6244 337.5385 14.75486330584331
SWISSCUBE               
1 35932U 09051B   19343.15054747  .00000110  00000-0  35983-4 0  9994
2 35932  98.5995 154.3781 0007526   2.0137 358.1089 14.56337607542020
BEESAT-1                
1 35933U 09051C   19343.14327676  .00000089  00000-0  31095-4 0  9993
2 35933  98.6008 156.1957 0006023  17.4218 342.7184 14.56420114542136
ITUPSAT1                
1 35935U 09051E   19343.43882086  .00000085  00000-0  30651-4 0  9991
2 35935  98.6116 156.7236 0008250  11.7578 348.3809 14.55573356541911
XIWANG-1 (HOPE-1)       
1 36122U 09072B   19343.40625040 -.00000029  00000-0  35753-4 0  9992
2 36122 100.0807 337.6665 0007012 306.9294  53.1184 13.16352534479736
JUGNU                   
1 37839U 11058B   19342.43217771  .00000302  00000-0  19040-4 0  9999
2 37839  19.9626   7.2465 0019166  71.5890 316.7233 14.12666328421711
SRMSAT                  
1 37841U 11058D   19342.60973222  .00000297  00000-0  18004-4 0  9993
2 37841  19.9726  66.5203 0011762 297.0195 202.1494 14.10644939421135
M-CUBED & EXP-1 PRIME   
1 37855U 11061F   19342.91395342  .00001260  00000-0  70378-4 0  9990
2 37855 101.7249 327.5335 0172217 283.2258  74.9794 15.05862470442842
STRAND-1                
1 39090U 13009E   19343.53290691  .00000054  00000-0  34191-4 0  9990
2 39090  98.4695 186.4363 0009975 128.0853 232.1233 14.35109072355328
SOMP                    
1 39134U 13015E   19342.88713281  .00000936  00000-0  51294-4 0  9990
2 39134  64.8615 179.1630 0037659 275.4056  84.2776 15.20557747366921
BEESAT-3                
1 39135U 13015F   19343.44976579  .00000555  00000-0  36825-4 0  9995
2 39135  64.8652 198.1085 0042204 278.1394  81.4946 15.17778797366615
BEESAT-2                
1 39136U 13015G   19342.89406586  .00000719  00000-0  45681-4 0  9992
2 39136  64.8688 204.2389 0030621 283.9940  75.7782 15.17198300366050
ZACUBE-1 (TSHEPISOSAT)  
1 39417U 13066B   19342.58263441  .00000178  00000-0  28642-4 0  9994
2 39417  97.5612 346.3588 0058761 185.6876 174.3677 14.81189069326633
GOMX-1                  
1 39430U 13066Q   19343.37421047  .00000218  00000-0  48005-4 0  9995
2 39430  97.7696 288.6823 0152404  66.7775 294.9395 14.59320419321933
CUBEBUG-2 (LO-74)       
1 39440U 13066AA  19342.90530672  .00000158  00000-0  29104-4 0  9991
2 39440  97.6136 331.2207 0078878 241.8508 117.4717 14.75927734324329
FUNCUBE-1 (AO-73)       
1 39444U 13066AE  19342.75706619  .00000226  00000-0  34023-4 0  9996
2 39444  97.5576 348.6253 0058078 178.2036 181.9397 14.82023359325567
UWE-3                   
1 39446U 13066AG  19342.68053913  .00000171  00000-0  29385-4 0  9996
2 39446  97.5869 338.1784 0069127 214.5927 145.0779 14.78461607324827
SPROUT                  
1 39770U 14029E   19343.52847525  .00000464  00000-0  57284-4 0  9994
2 39770  97.8909  85.7804 0007960 231.1655 128.8855 14.87532061300677
UNISAT-6                
1 40012U 14033C   19343.52538839  .00000149  00000-0  29729-4 0  9998
2 40012  97.7317 202.4166 0056952 256.6993 102.7861 14.74042144294293
DUCHIFAT-1              
1 40021U 14033M   19342.85967805  .00000292  00000-0  35519-4 0  9995
2 40021  97.9315 268.0693 0012317 193.3967 166.6925 14.90756764297348
QB50P1                  
1 40025U 14033R   19342.87768368  .00000198  00000-0  27010-4 0  9996
2 40025  97.9091 262.2831 0011703 204.2338 155.8329 14.89033770296581
NUDT-PHONESAT           
1 40900U 15049B   19343.55681399  .00001627  00000-0  71348-4 0  9991
2 40900  97.4357 351.2302 0011280 299.1065 180.0971 15.23370223234126
ZDPS 2A                 
1 40901U 15049C   19343.39304271  .00000711  00000-0  38291-4 0  9998
2 40901  97.4618 346.7444 0012711 325.3148 140.3838 15.17968974233586
ZDPS 2B                 
1 40902U 15049D   19343.37073718  .00000799  00000-0  42713-4 0  9996
2 40902  97.4575 344.0825 0012496 322.0102 151.3756 15.17869905233559
XW-2A                   
1 40903U 15049E   19343.41609006  .00001364  00000-0  33513-4 0  9994
2 40903  97.3167  26.9962 0011946 232.4865 184.3957 15.42400155237024
KAITUO 1A               
1 40904U 15049F   19343.39420795  .00000620  00000-0  36174-4 0  9998
2 40904  97.4723 342.4922 0013822 332.1939 135.5272 15.15530777233300
2015-049G               
1 40905U 15049G   19343.40099703  .00000524  00000-0  32074-4 0  9990
2 40905  97.4778 339.8736 0014789 327.0997 139.3432 15.14411408233166
XW-2C                   
1 40906U 15049H   19343.35865777  .00000360  00000-0  22264-4 0  9995
2 40906  97.4726 342.6235 0013882 322.5628 144.3865 15.15851243233308
XW-2D                   
1 40907U 15049J   19343.45515244  .00000489  00000-0  28870-4 0  9999
2 40907  97.4711 342.4039 0013152 319.4489 197.3439 15.16057438233336
LILACSAT-2              
1 40908U 15049K   19343.44588132  .00000026  00000-0  50688-5 0  9995
2 40908  97.4848 341.0111 0015166 327.5691 190.7932 15.13907167233094
XW-2F                   
1 40910U 15049M   19343.51162705  .00000625  00000-0  34436-4 0  9997
2 40910  97.4658 344.7322 0013555 309.8882 202.1010 15.17580762233373
XW-2B                   
1 40911U 15049N   19343.29221921  .00000462  00000-0  27504-4 0  9996
2 40911  97.4722 342.9208 0013176 321.3554 164.4178 15.15985213233208
KAITUO 1B               
1 40912U 15049P   19343.40017484  .00000976  00000-0  48542-4 0  9992
2 40912  97.4499 348.5358 0013391 289.2279 177.5335 15.19930562233697
TIANWANG 1C (TW-1C)     
1 40926U 15051B   19343.38625206  .00011502  00000-0  14608-3 0  9996
2 40926  97.1148  29.5179 0008924  86.7783 330.2153 15.59518547237197
TIANWANG 1A (TW-1A)     
1 40928U 15051D   19343.37664699  .00002073  00000-0  51088-4 0  9993
2 40928  97.1302  10.7664 0011441 153.0351 332.3425 15.41635738235926
LAPAN-A2                
1 40931U 15052B   19342.12389082  .00000370  00000-0 -37558-4 0  9995
2 40931   6.0005 266.9022 0012502  74.0874 286.0779 14.76619897226789
E-ST@R-II               
1 41459U 16025D   19343.39407870  .00001359  00000-0  72294-4 0  9991
2 41459  98.1008  78.6459 0167877 134.2863 227.2262 15.05899304198682
AAUSAT 4                
1 41460U 16025E   19343.54274301  .00002642  00000-0  13317-3 0  9997
2 41460  98.0976  80.5084 0157199 124.8485 236.7585 15.07973693198863
NUSAT-1 (FRESCO)        
1 41557U 16033B   19343.52489842  .00000983  00000-0  39093-4 0  9995
2 41557  97.4130  69.9973 0014837  48.5586 311.6925 15.27586004196629
BEESAT-4                
1 41619U 16040W   19343.45977566  .00001151  00000-0  51045-4 0  9998
2 41619  97.3474  42.2751 0012575 127.8293 232.4084 15.23524551180319
CAS-2T & KS-1Q          
1 41847U 16066G   19342.86628802  .00000061  00000-0  18872-4 0  9999
2 41847  98.6840  26.1579 0366863  79.6449 284.5870 14.38025661161886
NAYIF-1 (EO-88)         
1 42017U 17008BX  19343.43235571  .00001237  00000-0  50987-4 0  9996
2 42017  97.3850  48.5880 0004584 278.6974  81.3745 15.25961419156413
MAX VALIER SAT          
1 42778U 17036P   19343.40910174  .00000771  00000-0  36409-4 0  9992
2 42778  97.3333  37.0560 0011549 341.6454  18.4364 15.22291103136660
RADFXSAT (FOX-1B)       
1 43017U 17073E   19342.76970543  .00000631  00000-0  55131-4 0  9992
2 43017  97.7249 257.3653 0256750 315.0356  43.0315 14.78734434110838
FOX-1D (AO-92)          
1 43137U 18004AC  19343.27788996  .00000822  00000-0  37133-4 0  9990
2 43137  97.4698  50.5340 0009530  17.5495 342.6069 15.23758550105926
ES'HAIL 2               
1 43700U 18090A   19342.84841017  .00000163  00000-0  00000-0 0  9994
2 43700   0.0213 344.9328 0001920 300.1597 123.4316  1.00269927  3786
FOX-1CLIFF (AO-95)      
1 43770U 18099N   19342.74166427  .00000578  00000-0  58239-4 0  9995
2 43770  97.7293  52.2467 0016051 115.2367 245.0519 14.94866764 55274
ITASAT 1                
1 43786U 18099AE  19342.71623602 -.00000208  00000-0 -13601-4 0  9998
2 43786  97.7308  52.5028 0016585 109.5945 250.7068 14.95224012 55282
JY1SAT (JO-97)          
1 43803U 18099AX  19343.48784351  .00000635  00000-0  62597-4 0  9992
2 43803  97.7267  53.1326 0016748 107.8598 252.4451 14.95377244 55393
PSAT2 (NO-104)          
1 44354U 19036R   19342.92026167  .00011490  00000-0  17378-3 0  9995
2 44354  28.5283 195.1236 0378943  70.9321 293.1911 14.99801570 25000
BRICSAT2 (NO-103)       
1 44355U 19036S   19343.28093058  .00023964  00000-0  36139-3 0  9994
2 44355  28.5285 191.2380 0370171  77.2677 286.9019 15.01953083 25065
JAISAT-1                
1 44419U 19038F   19343.17691726  .00000713  00000-0  44503-4 0  9993
2 44419  97.5128 302.3834 0023373  71.2236 289.1527 15.12462507 23684
